{"type": "FeatureCollection", "features": [ {"type": "Feature", "properties": {"norad_id": 66663, "name": "KSLV-II R/B", "group": "last-30-days", "lat": 35.60444019507908, "lon": 95.34939294397043, "alt_km": 606.1708983733597, "timestamp": "2025-12-08T08:58:59.558408+00:00", "meta": {"OBJECT_NAME": "KSLV-II R/B", "OBJECT_ID": "2025-274P", "EPOCH": "2025-12-06T19:27:04.446432", "MEAN_MOTION": 14.97226496, "ECCENTRICITY": 0.00484111, "INCLINATION": 97.7412, "RA_OF_ASC_NODE": 268.2109, "ARG_OF_PERICENTER": 339.2416, "MEAN_ANOMALY": 20.6839, "EPHEMERIS_TYPE": 0, "CLASSIFICATION_TYPE": "U", "NORAD_CAT_ID": 66663, "ELEMENT_SET_NO": 999, "REV_AT_EPOCH": 152, "BSTAR": 0.00053388811, "MEAN_MOTION_DOT": 6.269e-05, "MEAN_MOTION_DDOT": 0}, "tle": {"line1": "1 66663U 25274P   25340.81046813  .00006269  00000+0  53389-3 0  9995", "line2": "2 66663  97.7412 268.2109 0048411 339.2416  20.6839 14.97226496  1529"}}, "geometry": {"type": "Point", "coordinates": [95.34939294397043, 35.60444019507908]}}, {"type": "Feature", "properties": {"norad_id": 66664, "name": "SOYUZ-MS 28", "group": "last-30-days", "lat": 28.926990770655927, "lon": -41.87469967316533, "alt_km": 414.30348822874294, "timestamp": "2025-12-08T08:58:59.558419+00:00", "meta": {"OBJECT_NAME": "SOYUZ-MS 28", "OBJECT_ID": "2025-275A", "EPOCH": "2025-12-07T21:32:16.385568", "MEAN_MOTION": 15.49404055, "ECCENTRICITY": 0.0003425, "INCLINATION": 51.6302, "RA_OF_ASC_NODE": 166.4547, "ARG_OF_PERICENTER": 217.7386, "MEAN_ANOMALY": 142.3363, "EPHEMERIS_TYPE": 0, "CLASSIFICATION_TYPE": "U", "NORAD_CAT_ID": 66664, "ELEMENT_SET_NO": 999, "REV_AT_EPOCH": 128, "BSTAR": 0.00022339025, "MEAN_MOTION_DOT": 0.00012051, "MEAN_MOTION_DDOT": 0}, "tle": {"line1": "1 66664U 25275A   25341.89741187  .00012051  00000+0  22339-3 0  9999", "line2": "2 66664  51.6302 166.4547 0003425 217.7386 142.3363 15.49404055  1288"}}, "geometry": {"type": "Point", "coordinates": [-41.87469967316533, 28.926990770655927]}}, {"type": "Feature", "properties": {"norad_id": 66820, "name": "KOMPSAT-7", "group": "last-30-days", "lat": -27.884526177329793, "lon": 104.25639645630864, "alt_km": 572.052377071388, "timestamp": "2025-12-08T08:58:59.558431+00:00", "meta": {"OBJECT_NAME": "KOMPSAT-7", "OBJECT_ID": "2025-279A", "EPOCH": "2025-12-07T20:50:15.676800", "MEAN_MOTION": 14.98364297, "ECCENTRICITY": 0.00094369, "INCLINATION": 97.6397, "RA_OF_ASC_NODE": 287.8336, "ARG_OF_PERICENTER": 238.6296, "MEAN_ANOMALY": 121.4004, "EPHEMERIS_TYPE": 0, "CLASSIFICATION_TYPE": "U", "NORAD_CAT_ID": 66820, "ELEMENT_SET_NO": 999, "REV_AT_EPOCH": 92, "BSTAR": 0.00039201075, "MEAN_MOTION_DOT": 4.619e-05, "MEAN_MOTION_DDOT": 0}, "tle": {"line1": "1 66820U 25279A   25341.86823700  .00004619  00000+0  39201-3 0  9993", "line2": "2 66820  97.6397 287.8336 0009436 238.6296 121.4004 14.98364297   926"}}, "geometry": {"type": "Point", "coordinates": [104.25639645630864, -27.884526177329793]}}, {"type": "Feature", "properties": {"norad_id": 66877, "name": "ZQ-3 R/B", "group": "last-30-days", "lat": 31.02982478633295, "lon": -128.80799804802473, "alt_km": 490.1291511941563, "timestamp": "2025-12-08T08:58:59.558444+00:00", "meta": {"OBJECT_NAME": "ZQ-3 R/B", "OBJECT_ID": "2025-282A", "EPOCH": "2025-12-07T15:41:14.959104", "MEAN_MOTION": 14.46379859, "ECCENTRICITY": 0.08336548, "INCLINATION": 56.9538, "RA_OF_ASC_NODE": 76.9574, "ARG_OF_PERICENTER": 211.2388, "MEAN_ANOMALY": 143.6444, "EPHEMERIS_TYPE": 0, "CLASSIFICATION_TYPE": "U", "NORAD_CAT_ID": 66877, "ELEMENT_SET_NO": 999, "REV_AT_EPOCH": 65, "BSTAR": 0.00025181776, "MEAN_MOTION_DOT": 0.01166636, "MEAN_MOTION_DDOT": 7.274498e-06}, "tle": {"line1": "1 66877U 25282A   25341.65364536  .01166636  72745-5  25182-3 0  9996", "line2": "2 66877  56.9538  76.9574 0833654 211.2388 143.6444 14.46379859   657"}}, "geometry": {"type": "Point", "coordinates": [-128.80799804802473, 31.02982478633295]}}, {"type": "Feature", "properties": {"norad_id": 66906, "name": "1998-067XS", "group": "last-30-days", "lat": 17.81084817771148, "lon": -30.685381931894348, "alt_km": 411.6681338208664, "timestamp": "2025-12-08T08:58:59.558454+00:00", "meta": {"OBJECT_NAME": "1998-067XS", "OBJECT_ID": "1998-067XS", "EPOCH": "2025-12-07T18:23:05.277120", "MEAN_MOTION": 15.50202047, "ECCENTRICITY": 0.00041027, "INCLINATION": 51.6298, "RA_OF_ASC_NODE": 167.0779, "ARG_OF_PERICENTER": 180.8323, "MEAN_ANOMALY": 179.266, "EPHEMERIS_TYPE": 0, "CLASSIFICATION_TYPE": "U", "NORAD_CAT_ID": 66906, "ELEMENT_SET_NO": 999, "REV_AT_EPOCH": 84, "BSTAR": 0.00058960248, "MEAN_MOTION_DOT": 0.00033584, "MEAN_MOTION_DDOT": 0}, "tle": {"line1": "1 66906U 98067XS  25341.76603330  .00033584  00000+0  58960-3 0  9993", "line2": "2 66906  51.6298 167.0779 0004102 180.8323 179.2660 15.50202047   848"}}, "geometry": {"type": "Point", "coordinates": [-30.685381931894348, 17.81084817771148]}}, {"type": "Feature", "properties": {"norad_id": 66907, "name": "1998-067XT", "group": "last-30-days", "lat": 14.146151381539246, "lon": -27.46761996882172, "alt_km": 410.72944561638906, "timestamp": "2025-12-08T08:58:59.558465+00:00", "meta": {"OBJECT_NAME": "1998-067XT", "OBJECT_ID": "1998-067XT", "EPOCH": "2025-12-07T21:27:41.929920", "MEAN_MOTION": 15.50640627, "ECCENTRICITY": 0.00050838, "INCLINATION": 51.63, "RA_OF_ASC_NODE": 166.4336, "ARG_OF_PERICENTER": 199.2143, "MEAN_ANOMALY": 160.8655, "EPHEMERIS_TYPE": 0, "CLASSIFICATION_TYPE": "U", "NORAD_CAT_ID": 66907, "ELEMENT_SET_NO": 999, "REV_AT_EPOCH": 86, "BSTAR": 0.0010871959, "MEAN_MOTION_DOT": 0.00063549, "MEAN_MOTION_DDOT": 0}, "tle": {"line1": "1 66907U 98067XT  25341.89423530  .00063549  00000+0  10872-2 0  9993", "line2": "2 66907  51.6300 166.4336 0005083 199.2143 160.8655 15.50640627   860"}}, "geometry": {"type": "Point", "coordinates": [-27.46761996882172, 14.146151381539246]}}, {"type": "Feature", "properties": {"norad_id": 66908, "name": "1998-067XU", "group": "last-30-days", "lat": 13.387239937830454, "lon": -26.820121595511157, "alt_km": 410.5394081716331, "timestamp": "2025-12-08T08:58:59.558475+00:00", "meta": {"OBJECT_NAME": "1998-067XU", "OBJECT_ID": "1998-067XU", "EPOCH": "2025-12-07T19:54:39.986208", "MEAN_MOTION": 15.50677163, "ECCENTRICITY": 0.00052497, "INCLINATION": 51.6294, "RA_OF_ASC_NODE": 166.7524, "ARG_OF_PERICENTER": 198.4563, "MEAN_ANOMALY": 161.6236, "EPHEMERIS_TYPE": 0, "CLASSIFICATION_TYPE": "U", "NORAD_CAT_ID": 66908, "ELEMENT_SET_NO": 999, "REV_AT_EPOCH": 85, "BSTAR": 0.0012583992, "MEAN_MOTION_DOT": 0.00073824, "MEAN_MOTION_DDOT": 0}, "tle": {"line1": "1 66908U 98067XU  25341.82962947  .00073824  00000+0  12584-2 0  9996", "line2": "2 66908  51.6294 166.7524 0005249 198.4563 161.6236 15.50677163   854"}}, "geometry": {"type": "Point", "coordinates": [-26.820121595511157, 13.387239937830454]}}, {"type": "Feature", "properties": {"norad_id": 66909, "name": "SILVERSAT", "group": "last-30-days", "lat": 12.966274453731765, "lon": -26.463060942610518, "alt_km": 410.4733566953746, "timestamp": "2025-12-08T08:58:59.558485+00:00", "meta": {"OBJECT_NAME": "SILVERSAT", "OBJECT_ID": "1998-067XV", "EPOCH": "2025-12-07T19:54:33.887232", "MEAN_MOTION": 15.50747382, "ECCENTRICITY": 0.00050921, "INCLINATION": 51.6296, "RA_OF_ASC_NODE": 166.752, "ARG_OF_PERICENTER": 199.8533, "MEAN_ANOMALY": 160.2258, "EPHEMERIS_TYPE": 0, "CLASSIFICATION_TYPE": "U", "NORAD_CAT_ID": 66909, "ELEMENT_SET_NO": 999, "REV_AT_EPOCH": 85, "BSTAR": 0.0014852493, "MEAN_MOTION_DOT": 0.00087585, "MEAN_MOTION_DDOT": 0}, "tle": {"line1": "1 66909U 98067XV  25341.82955888  .00087585  00000+0  14852-2 0  9992", "line2": "2 66909  51.6296 166.7520 0005092 199.8533 160.2258 15.50747382   851"}}, "geometry": {"type": "Point", "coordinates": [-26.463060942610518, 12.966274453731765]}}, {"type": "Feature", "properties": {"norad_id": 66910, "name": "1998-067XW", "group": "last-30-days", "lat": 8.589458992727657, "lon": -22.83694779350058, "alt_km": 409.37221654666155, "timestamp": "2025-12-08T08:58:59.558497+00:00", "meta": {"OBJECT_NAME": "1998-067XW", "OBJECT_ID": "1998-067XW", "EPOCH": "2025-12-07T21:26:00.150720", "MEAN_MOTION": 15.50969965, "ECCENTRICITY": 0.00060372, "INCLINATION": 51.6295, "RA_OF_ASC_NODE": 166.4259, "ARG_OF_PERICENTER": 184.7367, "MEAN_ANOMALY": 175.3566, "EPHEMERIS_TYPE": 0, "CLASSIFICATION_TYPE": "U", "NORAD_CAT_ID": 66910, "ELEMENT_SET_NO": 999, "REV_AT_EPOCH": 86, "BSTAR": 0.0010283643, "MEAN_MOTION_DOT": 0.00060787, "MEAN_MOTION_DDOT": 0}, "tle": {"line1": "1 66910U 98067XW  25341.89305730  .00060787  00000+0  10284-2 0  9996", "line2": "2 66910  51.6295 166.4259 0006037 184.7367 175.3566 15.50969965   869"}}, "geometry": {"type": "Point", "coordinates": [-22.83694779350058, 8.589458992727657]}}, {"type": "Feature", "properties": {"norad_id": 66911, "name": "1998-067XX", "group": "last-30-days", "lat": 7.71031040606522, "lon": -22.12366151771963, "alt_km": 409.19058044332814, "timestamp": "2025-12-08T08:58:59.558507+00:00", "meta": {"OBJECT_NAME": "1998-067XX", "OBJECT_ID": "1998-067XX", "EPOCH": "2025-12-07T22:58:32.522304", "MEAN_MOTION": 15.51093228, "ECCENTRICITY": 0.00059306, "INCLINATION": 51.6292, "RA_OF_ASC_NODE": 166.1051, "ARG_OF_PERICENTER": 185.6814, "MEAN_ANOMALY": 174.4109, "EPHEMERIS_TYPE": 0, "CLASSIFICATION_TYPE": "U", "NORAD_CAT_ID": 66911, "ELEMENT_SET_NO": 999, "REV_AT_EPOCH": 86, "BSTAR": 0.0012532777, "MEAN_MOTION_DOT": 0.00074641, "MEAN_MOTION_DDOT": 0}, "tle": {"line1": "1 66911U 98067XX  25341.95732086  .00074641  00000+0  12533-2 0  9995", "line2": "2 66911  51.6292 166.1051 0005930 185.6814 174.4109 15.51093228   866"}}, "geometry": {"type": "Point", "coordinates": [-22.12366151771963, 7.71031040606522]}}]}